OBJECT_NAME,OBJECT_ID,EPOCH,MEAN_MOTION,ECCENTRICITY,INCLINATION,RA_OF_ASC_NODE,ARG_OF_PERICENTER,MEAN_ANOMALY,EPHEMERIS_TYPE,CLASSIFICATION_TYPE,NORAD_CAT_ID,ELEMENT_SET_NO,REV_AT_EPOCH,BSTAR,MEAN_MOTION_DOT,MEAN_MOTION_DDOT
STARLINK-37508,2026-117V,2026-06-06T20:00:01.999008,15.96867942,.0000735,53.1567,295.3181,49.5939,151.9038,0,U,69257,999,249,-.51145E-2,-.223389E-1,.14121E-2
STARLINK-37276,2026-117W,2026-06-06T20:00:01.999008,16.01491472,.0000623,53.1565,295.2488,39.3751,195.0545,0,U,69258,999,249,-.32407E-2,-.1843158E-1,.10345E-2
STARLINK-37518,2026-117X,2026-06-06T20:00:01.999008,16.01419660,.0000568,53.1562,295.2374,46.6703,193.6542,0,U,69259,999,250,-.32094E-2,-.1818076E-1,.10075E-2
STARLINK-37478,2026-117Y,2026-06-06T20:00:01.999008,16.00714317,.0000646,53.1563,295.2332,40.9420,201.4240,0,U,69260,999,250,-.36415E-2,-.1978048E-1,.11709E-2
STARLINK-37506,2026-117Z,2026-06-06T20:00:01.999008,16.00770127,.0000702,53.1560,295.2238,41.3814,205.4105,0,U,69261,999,250,-.37068E-2,-.2019535E-1,.12187E-2
STARLINK-37503,2026-117AA,2026-06-06T20:00:01.999008,16.00753804,.0000632,53.1562,295.2115,45.7612,206.6968,0,U,69262,999,250,-.38138E-2,-.2075215E-1,.12831E-2
STARLINK-37502,2026-117AB,2026-06-06T20:00:01.999008,16.00498439,.0000747,53.1560,295.2055,37.6915,217.4308,0,U,69263,999,250,-.38439E-2,-.2061159E-1,.12628E-2
STARLINK-37486,2026-117AC,2026-06-06T20:00:01.999008,16.00528164,.0000605,53.1557,295.1939,39.2397,221.6226,0,U,69264,999,250,-.37626E-2,-.2021493E-1,.12174E-2
STARLINK-37435,2026-117AD,2026-06-06T20:00:01.999008,16.01036123,.0000672,53.1557,295.1753,42.2568,227.0328,0,U,69265,999,250,-.36069E-2,-.1995826E-1,.11954E-2
STARLINK-37464,2026-117AE,2026-06-06T20:00:01.999008,16.01532092,.0000641,53.1557,295.1570,44.0350,233.9673,0,U,69266,999,250,-.35259E-2,-.2007976E-1,.12164E-2
KUIPER-00282,2026-118A,2026-06-06T20:00:01.999008,15.35089219,.0011882,51.8576,103.4481,145.0791,20.3176,0,U,69267,999,176,.11886E-2,.41016E-3,0
KUIPER-00383,2026-118B,2026-06-06T20:00:01.999008,15.35586773,.001123,51.8580,103.4230,144.4412,33.3068,0,U,69268,999,182,.11865E-2,.416E-3,0
KUIPER-00527,2026-118C,2026-06-06T20:00:01.999008,15.35966582,.0009683,51.8607,103.4034,140.7867,46.7243,0,U,69269,999,130,.12625E-2,.44832E-3,0
KUIPER-00562,2026-118D,2026-06-06T20:00:01.999008,15.38383764,.0001932,51.8718,103.2630,92.2945,157.6807,0,U,69270,999,235,.12593E-2,.48334E-3,0
KUIPER-00570,2026-118E,2026-06-06T20:00:01.999008,15.35570580,.0011333,51.8567,103.4230,147.4075,30.3188,0,U,69271,999,194,.15965E-2,.56189E-3,0
KUIPER-00572,2026-118F,2026-06-06T20:00:01.999008,15.36753650,.0007616,51.8664,103.3681,134.7592,69.3055,0,U,69272,999,169,.11992E-2,.4363E-3,0
KUIPER-00581,2026-118G,2026-06-06T20:00:01.999008,15.36431324,.0009143,51.8644,103.3876,139.1221,55.9408,0,U,69273,999,248,.11761E-2,.42347E-3,0
KUIPER-00584,2026-118H,2026-06-06T20:00:01.999008,15.35247883,.0011337,51.8592,103.4400,151.3213,18.1200,0,U,69274,999,130,.12023E-2,.41702E-3,0
KUIPER-00587,2026-118J,2026-06-06T20:00:01.999008,15.36410863,.0008654,51.8618,103.3816,140.8815,57.3270,0,U,69275,999,130,.11806E-2,.42478E-3,0
KUIPER-00590,2026-118K,2026-06-06T20:00:01.999008,15.37645145,.0004518,51.8681,103.3163,123.7606,105.1863,0,U,69276,999,224,.12206E-2,.45712E-3,0
KUIPER-00592,2026-118L,2026-06-06T20:00:01.999008,15.37850817,.0003784,51.8703,103.3013,102.3839,132.4007,0,U,69277,999,130,.12198E-2,.45987E-3,0
KUIPER-00593,2026-118M,2026-06-06T20:00:01.999008,15.37752685,.0004108,51.8708,103.3014,119.6449,114.4420,0,U,69278,999,245,.12207E-2,.45877E-3,0
KUIPER-00594,2026-118N,2026-06-06T20:00:01.999008,15.38565587,.0001589,51.8716,103.2554,61.2726,194.2653,0,U,69279,999,130,.13237E-2,.51147E-3,0
KUIPER-00595,2026-118P,2026-06-06T20:00:01.999008,15.38249488,.000199,51.8708,103.2734,104.3013,143.7787,0,U,69280,999,242,.12389E-2,.47329E-3,0
KUIPER-00596,2026-118Q,2026-06-06T20:00:01.999008,15.35577579,.0012137,51.8540,103.4329,146.9075,25.5055,0,U,69281,999,169,.11626E-2,.40748E-3,0
KUIPER-00597,2026-118R,2026-06-06T20:00:01.999008,15.36937617,.0007302,51.8641,103.3543,134.0665,77.3578,0,U,69282,999,130,.16934E-2,.6229E-3,0
KUIPER-00599,2026-118S,2026-06-06T20:00:01.999008,15.37121981,.0006422,51.8683,103.3435,128.8109,86.6243,0,U,69283,999,149,.12609E-2,.46456E-3,0
KUIPER-00600,2026-118T,2026-06-06T20:00:01.999008,15.36515790,.0009301,51.8631,103.3785,135.3987,64.2107,0,U,69284,999,227,.11788E-2,.42567E-3,0
KUIPER-00601,2026-118U,2026-06-06T20:00:01.999008,15.37441666,.000492,51.8698,103.3253,122.2594,101.2488,0,U,69285,999,230,.12017E-2,.44698E-3,0
KUIPER-00602,2026-118V,2026-06-06T20:00:01.999008,15.37883979,.0003203,51.8696,103.2964,111.8629,125.9988,0,U,69286,999,130,.12239E-2,.46193E-3,0
