STARLINK-37508          
1 69257U 26117V   26157.83335647 -.02233890  14121-2 -51145-2 0  9994
2 69257  53.1567 295.3181 0000735  49.5939 151.9038 15.96867942  2490
STARLINK-37276          
1 69258U 26117W   26157.83335647 -.01843158  10345-2 -32407-2 0  9992
2 69258  53.1565 295.2488 0000623  39.3751 195.0545 16.01491472  2493
STARLINK-37518          
1 69259U 26117X   26157.83335647 -.01818076  10075-2 -32094-2 0  9996
2 69259  53.1562 295.2374 0000568  46.6703 193.6542 16.01419660  2503
STARLINK-37478          
1 69260U 26117Y   26157.83335647 -.01978048  11709-2 -36415-2 0  9990
2 69260  53.1563 295.2332 0000646  40.9420 201.4240 16.00714317  2509
STARLINK-37506          
1 69261U 26117Z   26157.83335647 -.02019535  12187-2 -37068-2 0  9995
2 69261  53.1560 295.2238 0000702  41.3814 205.4105 16.00770127  2502
STARLINK-37503          
1 69262U 26117AA  26157.83335647 -.02075215  12831-2 -38138-2 0  9998
2 69262  53.1562 295.2115 0000632  45.7612 206.6968 16.00753804  2508
STARLINK-37502          
1 69263U 26117AB  26157.83335647 -.02061159  12628-2 -38439-2 0  9999
2 69263  53.1560 295.2055 0000747  37.6915 217.4308 16.00498439  2501
STARLINK-37486          
1 69264U 26117AC  26157.83335647 -.02021493  12174-2 -37626-2 0  9990
2 69264  53.1557 295.1939 0000605  39.2397 221.6226 16.00528164  2508
STARLINK-37435          
1 69265U 26117AD  26157.83335647 -.01995826  11954-2 -36069-2 0  9995
2 69265  53.1557 295.1753 0000672  42.2568 227.0328 16.01036123  2504
STARLINK-37464          
1 69266U 26117AE  26157.83335647 -.02007976  12164-2 -35259-2 0  9991
2 69266  53.1557 295.1570 0000641  44.0350 233.9673 16.01532092  2502
KUIPER-00282            
1 69267U 26118A   26157.83335647  .00041016  00000+0  11886-2 0  9995
2 69267  51.8576 103.4481 0011882 145.0791  20.3176 15.35089219  1768
KUIPER-00383            
1 69268U 26118B   26157.83335647  .00041600  00000+0  11865-2 0  9992
2 69268  51.8580 103.4230 0011230 144.4412  33.3068 15.35586773  1824
KUIPER-00527            
1 69269U 26118C   26157.83335647  .00044832  00000+0  12625-2 0  9998
2 69269  51.8607 103.4034 0009683 140.7867  46.7243 15.35966582  1305
KUIPER-00562            
1 69270U 26118D   26157.83335647  .00048334  00000+0  12593-2 0  9995
2 69270  51.8718 103.2630 0001932  92.2945 157.6807 15.38383764  2359
KUIPER-00570            
1 69271U 26118E   26157.83335647  .00056189  00000+0  15965-2 0  9999
2 69271  51.8567 103.4230 0011333 147.4075  30.3188 15.35570580  1947
KUIPER-00572            
1 69272U 26118F   26157.83335647  .00043630  00000+0  11992-2 0  9993
2 69272  51.8664 103.3681 0007616 134.7592  69.3055 15.36753650  1696
KUIPER-00581            
1 69273U 26118G   26157.83335647  .00042347  00000+0  11761-2 0  9992
2 69273  51.8644 103.3876 0009143 139.1221  55.9408 15.36431324  2488
KUIPER-00584            
1 69274U 26118H   26157.83335647  .00041702  00000+0  12023-2 0  9999
2 69274  51.8592 103.4400 0011337 151.3213  18.1200 15.35247883  1305
KUIPER-00587            
1 69275U 26118J   26157.83335647  .00042478  00000+0  11806-2 0  9999
2 69275  51.8618 103.3816 0008654 140.8815  57.3270 15.36410863  1307
KUIPER-00590            
1 69276U 26118K   26157.83335647  .00045712  00000+0  12206-2 0  9999
2 69276  51.8681 103.3163 0004518 123.7606 105.1863 15.37645145  2244
KUIPER-00592            
1 69277U 26118L   26157.83335647  .00045987  00000+0  12198-2 0  9994
2 69277  51.8703 103.3013 0003784 102.3839 132.4007 15.37850817  1302
KUIPER-00593            
1 69278U 26118M   26157.83335647  .00045877  00000+0  12207-2 0  9994
2 69278  51.8708 103.3014 0004108 119.6449 114.4420 15.37752685  2458
KUIPER-00594            
1 69279U 26118N   26157.83335647  .00051147  00000+0  13237-2 0  9996
2 69279  51.8716 103.2554 0001589  61.2726 194.2653 15.38565587  1307
KUIPER-00595            
1 69280U 26118P   26157.83335647  .00047329  00000+0  12389-2 0  9992
2 69280  51.8708 103.2734 0001990 104.3013 143.7787 15.38249488  2424
KUIPER-00596            
1 69281U 26118Q   26157.83335647  .00040748  00000+0  11626-2 0  9994
2 69281  51.8540 103.4329 0012137 146.9075  25.5055 15.35577579  1691
KUIPER-00597            
1 69282U 26118R   26157.83335647  .00062290  00000+0  16934-2 0  9998
2 69282  51.8641 103.3543 0007302 134.0665  77.3578 15.36937617  1309
KUIPER-00599            
1 69283U 26118S   26157.83335647  .00046456  00000+0  12609-2 0  9990
2 69283  51.8683 103.3435 0006422 128.8109  86.6243 15.37121981  1494
KUIPER-00600            
1 69284U 26118T   26157.83335647  .00042567  00000+0  11788-2 0  9997
2 69284  51.8631 103.3785 0009301 135.3987  64.2107 15.36515790  2274
KUIPER-00601            
1 69285U 26118U   26157.83335647  .00044698  00000+0  12017-2 0  9991
2 69285  51.8698 103.3253 0004920 122.2594 101.2488 15.37441666  2308
KUIPER-00602            
1 69286U 26118V   26157.83335647  .00046193  00000+0  12239-2 0  9990
2 69286  51.8696 103.2964 0003203 111.8629 125.9988 15.37883979  1305
